CCSDS_OMM_VERS = 2.0
CREATION_DATE  = 
ORIGINATOR     = 

OBJECT_NAME    = STARLINK-36875
OBJECT_ID      = 2026-057G
CENTER_NAME    = EARTH
REF_FRAME      = TEME
TIME_SYSTEM    = UTC
MEAN_ELEMENT_THEORY = SGP/SGP4

EPOCH          = 2026-04-02T04:00:03.000096
MEAN_MOTION    = 15.91413381
ECCENTRICITY   = .0001359
INCLINATION    = 97.2790
RA_OF_ASC_NODE = 215.6467
ARG_OF_PERICENTER = 64.0494
MEAN_ANOMALY   = 222.0453

EPHEMERIS_TYPE = 0
CLASSIFICATION_TYPE = U
NORAD_CAT_ID   = 68300
ELEMENT_SET_NO = 999
REV_AT_EPOCH   = 298
BSTAR          = -.42346E-2
MEAN_MOTION_DOT = -.1345681E-1
MEAN_MOTION_DDOT = .51875E-3

CCSDS_OMM_VERS = 2.0
CREATION_DATE  = 
ORIGINATOR     = 

OBJECT_NAME    = STARLINK-37099
OBJECT_ID      = 2026-057H
CENTER_NAME    = EARTH
REF_FRAME      = TEME
TIME_SYSTEM    = UTC
MEAN_ELEMENT_THEORY = SGP/SGP4

EPOCH          = 2026-04-02T04:00:03.000096
MEAN_MOTION    = 15.91556362
ECCENTRICITY   = .0001338
INCLINATION    = 97.2783
RA_OF_ASC_NODE = 215.6506
ARG_OF_PERICENTER = 68.0317
MEAN_ANOMALY   = 226.4270

EPHEMERIS_TYPE = 0
CLASSIFICATION_TYPE = U
NORAD_CAT_ID   = 68301
ELEMENT_SET_NO = 999
REV_AT_EPOCH   = 281
BSTAR          = -.43805E-2
MEAN_MOTION_DOT = -.1401643E-1
MEAN_MOTION_DDOT = .56016E-3

CCSDS_OMM_VERS = 2.0
CREATION_DATE  = 
ORIGINATOR     = 

OBJECT_NAME    = STARLINK-37007
OBJECT_ID      = 2026-057J
CENTER_NAME    = EARTH
REF_FRAME      = TEME
TIME_SYSTEM    = UTC
MEAN_ELEMENT_THEORY = SGP/SGP4

EPOCH          = 2026-04-02T04:00:03.000096
MEAN_MOTION    = 15.91672218
ECCENTRICITY   = .0001323
INCLINATION    = 97.2776
RA_OF_ASC_NODE = 215.6540
ARG_OF_PERICENTER = 72.3553
MEAN_ANOMALY   = 231.4389

EPHEMERIS_TYPE = 0
CLASSIFICATION_TYPE = U
NORAD_CAT_ID   = 68302
ELEMENT_SET_NO = 999
REV_AT_EPOCH   = 303
BSTAR          = -.48007E-2
MEAN_MOTION_DOT = -.1543639E-1
MEAN_MOTION_DDOT = .6705E-3

CCSDS_OMM_VERS = 2.0
CREATION_DATE  = 
ORIGINATOR     = 

OBJECT_NAME    = STARLINK-36300
OBJECT_ID      = 2026-057K
CENTER_NAME    = EARTH
REF_FRAME      = TEME
TIME_SYSTEM    = UTC
MEAN_ELEMENT_THEORY = SGP/SGP4

EPOCH          = 2026-04-02T04:00:03.000096
MEAN_MOTION    = 15.91611855
ECCENTRICITY   = .0001605
INCLINATION    = 97.2778
RA_OF_ASC_NODE = 215.6522
ARG_OF_PERICENTER = 79.8073
MEAN_ANOMALY   = 219.5973

EPHEMERIS_TYPE = 0
CLASSIFICATION_TYPE = U
NORAD_CAT_ID   = 68303
ELEMENT_SET_NO = 999
REV_AT_EPOCH   = 308
BSTAR          = -.46755E-2
MEAN_MOTION_DOT = -.1499265E-1
MEAN_MOTION_DDOT = .63486E-3

CCSDS_OMM_VERS = 2.0
CREATION_DATE  = 
ORIGINATOR     = 

OBJECT_NAME    = STARLINK-36849
OBJECT_ID      = 2026-057L
CENTER_NAME    = EARTH
REF_FRAME      = TEME
TIME_SYSTEM    = UTC
MEAN_ELEMENT_THEORY = SGP/SGP4

EPOCH          = 2026-04-02T04:00:03.000096
MEAN_MOTION    = 15.91744866
ECCENTRICITY   = .0001314
INCLINATION    = 97.2776
RA_OF_ASC_NODE = 215.6559
ARG_OF_PERICENTER = 69.0876
MEAN_ANOMALY   = 238.4118

EPHEMERIS_TYPE = 0
CLASSIFICATION_TYPE = U
NORAD_CAT_ID   = 68304
ELEMENT_SET_NO = 999
REV_AT_EPOCH   = 298
BSTAR          = -.48466E-2
MEAN_MOTION_DOT = -.1563975E-1
MEAN_MOTION_DDOT = .68746E-3

CCSDS_OMM_VERS = 2.0
CREATION_DATE  = 
ORIGINATOR     = 

OBJECT_NAME    = STARLINK-36277
OBJECT_ID      = 2026-057M
CENTER_NAME    = EARTH
REF_FRAME      = TEME
TIME_SYSTEM    = UTC
MEAN_ELEMENT_THEORY = SGP/SGP4

EPOCH          = 2026-04-02T04:00:03.000096
MEAN_MOTION    = 15.91827074
ECCENTRICITY   = .0001413
INCLINATION    = 97.2768
RA_OF_ASC_NODE = 215.6587
ARG_OF_PERICENTER = 66.0252
MEAN_ANOMALY   = 249.7765

EPHEMERIS_TYPE = 0
CLASSIFICATION_TYPE = U
NORAD_CAT_ID   = 68305
ELEMENT_SET_NO = 999
REV_AT_EPOCH   = 314
BSTAR          = -.48363E-2
MEAN_MOTION_DOT = -.1567189E-1
MEAN_MOTION_DDOT = .69065E-3

CCSDS_OMM_VERS = 2.0
CREATION_DATE  = 
ORIGINATOR     = 

OBJECT_NAME    = STARLINK-36307
OBJECT_ID      = 2026-057N
CENTER_NAME    = EARTH
REF_FRAME      = TEME
TIME_SYSTEM    = UTC
MEAN_ELEMENT_THEORY = SGP/SGP4

EPOCH          = 2026-04-02T04:00:03.000096
MEAN_MOTION    = 15.91811920
ECCENTRICITY   = .0001383
INCLINATION    = 97.2774
RA_OF_ASC_NODE = 215.6575
ARG_OF_PERICENTER = 66.9156
MEAN_ANOMALY   = 244.2474

EPHEMERIS_TYPE = 0
CLASSIFICATION_TYPE = U
NORAD_CAT_ID   = 68306
ELEMENT_SET_NO = 999
REV_AT_EPOCH   = 308
BSTAR          = -.48348E-2
MEAN_MOTION_DOT = -.1565521E-1
MEAN_MOTION_DDOT = .68918E-3

CCSDS_OMM_VERS = 2.0
CREATION_DATE  = 
ORIGINATOR     = 

OBJECT_NAME    = STARLINK-36264
OBJECT_ID      = 2026-057P
CENTER_NAME    = EARTH
REF_FRAME      = TEME
TIME_SYSTEM    = UTC
MEAN_ELEMENT_THEORY = SGP/SGP4

EPOCH          = 2026-04-02T04:00:03.000096
MEAN_MOTION    = 15.91843904
ECCENTRICITY   = .0001426
INCLINATION    = 97.2769
RA_OF_ASC_NODE = 215.6613
ARG_OF_PERICENTER = 64.4072
MEAN_ANOMALY   = 256.2699

EPHEMERIS_TYPE = 0
CLASSIFICATION_TYPE = U
NORAD_CAT_ID   = 68307
ELEMENT_SET_NO = 999
REV_AT_EPOCH   = 314
BSTAR          = -.49117E-2
MEAN_MOTION_DOT = -.1592704E-1
MEAN_MOTION_DDOT = .71176E-3

CCSDS_OMM_VERS = 2.0
CREATION_DATE  = 
ORIGINATOR     = 

OBJECT_NAME    = STARLINK-37138
OBJECT_ID      = 2026-057Q
CENTER_NAME    = EARTH
REF_FRAME      = TEME
TIME_SYSTEM    = UTC
MEAN_ELEMENT_THEORY = SGP/SGP4

EPOCH          = 2026-04-02T04:00:03.000096
MEAN_MOTION    = 15.91922850
ECCENTRICITY   = .0001379
INCLINATION    = 97.2761
RA_OF_ASC_NODE = 215.6617
ARG_OF_PERICENTER = 69.7234
MEAN_ANOMALY   = 254.3052

EPHEMERIS_TYPE = 0
CLASSIFICATION_TYPE = U
NORAD_CAT_ID   = 68308
ELEMENT_SET_NO = 999
REV_AT_EPOCH   = 281
BSTAR          = -.48656E-2
MEAN_MOTION_DOT = -.1584239E-1
MEAN_MOTION_DDOT = .70532E-3

CCSDS_OMM_VERS = 2.0
CREATION_DATE  = 
ORIGINATOR     = 

OBJECT_NAME    = STARLINK-37149
OBJECT_ID      = 2026-057R
CENTER_NAME    = EARTH
REF_FRAME      = TEME
TIME_SYSTEM    = UTC
MEAN_ELEMENT_THEORY = SGP/SGP4

EPOCH          = 2026-04-02T04:00:03.000096
MEAN_MOTION    = 15.91972290
ECCENTRICITY   = .0001349
INCLINATION    = 97.2756
RA_OF_ASC_NODE = 215.6631
ARG_OF_PERICENTER = 62.4974
MEAN_ANOMALY   = 265.4973

EPHEMERIS_TYPE = 0
CLASSIFICATION_TYPE = U
NORAD_CAT_ID   = 68309
ELEMENT_SET_NO = 999
REV_AT_EPOCH   = 292
BSTAR          = -.48332E-2
MEAN_MOTION_DOT = -.1577782E-1
MEAN_MOTION_DDOT = .70034E-3

CCSDS_OMM_VERS = 2.0
CREATION_DATE  = 
ORIGINATOR     = 

OBJECT_NAME    = STARLINK-37148
OBJECT_ID      = 2026-057S
CENTER_NAME    = EARTH
REF_FRAME      = TEME
TIME_SYSTEM    = UTC
MEAN_ELEMENT_THEORY = SGP/SGP4

EPOCH          = 2026-04-02T04:00:03.000096
MEAN_MOTION    = 15.92075874
ECCENTRICITY   = .0001457
INCLINATION    = 97.2753
RA_OF_ASC_NODE = 215.6667
ARG_OF_PERICENTER = 62.2592
MEAN_ANOMALY   = 273.9195

EPHEMERIS_TYPE = 0
CLASSIFICATION_TYPE = U
NORAD_CAT_ID   = 68310
ELEMENT_SET_NO = 999
REV_AT_EPOCH   = 303
BSTAR          = -.48667E-2
MEAN_MOTION_DOT = -.159697E-1
MEAN_MOTION_DDOT = .71696E-3

CCSDS_OMM_VERS = 2.0
CREATION_DATE  = 
ORIGINATOR     = 

OBJECT_NAME    = STARLINK-37140
OBJECT_ID      = 2026-057T
CENTER_NAME    = EARTH
REF_FRAME      = TEME
TIME_SYSTEM    = UTC
MEAN_ELEMENT_THEORY = SGP/SGP4

EPOCH          = 2026-04-02T04:00:03.000096
MEAN_MOTION    = 15.92017117
ECCENTRICITY   = .0001472
INCLINATION    = 97.2757
RA_OF_ASC_NODE = 215.6656
ARG_OF_PERICENTER = 63.4603
MEAN_ANOMALY   = 268.7965

EPHEMERIS_TYPE = 0
CLASSIFICATION_TYPE = U
NORAD_CAT_ID   = 68311
ELEMENT_SET_NO = 999
REV_AT_EPOCH   = 319
BSTAR          = -.48595E-2
MEAN_MOTION_DOT = -.1589881E-1
MEAN_MOTION_DDOT = .71065E-3

