STARLINK-36875          
1 68300U 26057G   26092.16670139 -.01345681  51875-3 -42346-2 0  9999
2 68300  97.2790 215.6467 0001359  64.0494 222.0453 15.91413381  2982
STARLINK-37099          
1 68301U 26057H   26092.16670139 -.01401643  56016-3 -43805-2 0  9994
2 68301  97.2783 215.6506 0001338  68.0317 226.4270 15.91556362  2818
STARLINK-37007          
1 68302U 26057J   26092.16670139 -.01543639  67050-3 -48007-2 0  9996
2 68302  97.2776 215.6540 0001323  72.3553 231.4389 15.91672218  3034
STARLINK-36300          
1 68303U 26057K   26092.16670139 -.01499265  63486-3 -46755-2 0  9999
2 68303  97.2778 215.6522 0001605  79.8073 219.5973 15.91611855  3080
STARLINK-36849          
1 68304U 26057L   26092.16670139 -.01563975  68746-3 -48466-2 0  9995
2 68304  97.2776 215.6559 0001314  69.0876 238.4118 15.91744866  2986
STARLINK-36277          
1 68305U 26057M   26092.16670139 -.01567189  69065-3 -48363-2 0  9998
2 68305  97.2768 215.6587 0001413  66.0252 249.7765 15.91827074  3149
STARLINK-36307          
1 68306U 26057N   26092.16670139 -.01565521  68918-3 -48348-2 0  9996
2 68306  97.2774 215.6575 0001383  66.9156 244.2474 15.91811920  3085
STARLINK-36264          
1 68307U 26057P   26092.16670139 -.01592704  71176-3 -49117-2 0  9995
2 68307  97.2769 215.6613 0001426  64.4072 256.2699 15.91843904  3147
STARLINK-37138          
1 68308U 26057Q   26092.16670139 -.01584239  70532-3 -48656-2 0  9992
2 68308  97.2761 215.6617 0001379  69.7234 254.3052 15.91922850  2812
STARLINK-37149          
1 68309U 26057R   26092.16670139 -.01577782  70034-3 -48332-2 0  9996
2 68309  97.2756 215.6631 0001349  62.4974 265.4973 15.91972290  2921
STARLINK-37148          
1 68310U 26057S   26092.16670139 -.01596970  71696-3 -48667-2 0  9994
2 68310  97.2753 215.6667 0001457  62.2592 273.9195 15.92075874  3039
STARLINK-37140          
1 68311U 26057T   26092.16670139 -.01589881  71065-3 -48595-2 0  9998
2 68311  97.2757 215.6656 0001472  63.4603 268.7965 15.92017117  3195
